[{"OBJECT_NAME":"KUZGTU 1 (RS47S)","OBJECT_ID":"2023-091AV","EPOCH":"2026-03-09T22:22:51.965760","MEAN_MOTION":15.27481352,"ECCENTRICITY":0.0012896,"INCLINATION":97.5178,"RA_OF_ASC_NODE":132.5224,"ARG_OF_PERICENTER":89.3666,"MEAN_ANOMALY":270.9051,"EPHEMERIS_TYPE":0,"CLASSIFICATION_TYPE":"U","NORAD_CAT_ID":57217,"ELEMENT_SET_NO":999,"REV_AT_EPOCH":14921,"BSTAR":0.00057711473,"MEAN_MOTION_DOT":0.00015496,"MEAN_MOTION_DDOT":0},{"OBJECT_NAME":"STARLINK-31808","OBJECT_ID":"2024-090X","EPOCH":"2026-03-09T08:30:38.003328","MEAN_MOTION":15.27585789,"ECCENTRICITY":2.702e-5,"INCLINATION":42.9978,"RA_OF_ASC_NODE":184.9759,"ARG_OF_PERICENTER":283.0419,"MEAN_ANOMALY":77.0403,"EPHEMERIS_TYPE":0,"CLASSIFICATION_TYPE":"U","NORAD_CAT_ID":59751,"ELEMENT_SET_NO":999,"REV_AT_EPOCH":10338,"BSTAR":-7.4868097e-5,"MEAN_MOTION_DOT":-2.321e-5,"MEAN_MOTION_DDOT":0}]
